{
  "norad_id": 63807,
  "name": "STARLINK-34109",
  "history": [
    {
      "epoch": "2026-03-28T15:04:47.118432Z",
      "apogee_km": 486.96368853490367,
      "perigee_km": 479.0527880751388,
      "latitude_deg": -2.9912912659432296e-05,
      "longitude_deg": 13.125701940774713,
      "height_km": 483.51785457616177,
      "semi_major_axis_km": 6861.145238305021,
      "eccentricity": 0.0005765,
      "inclination_deg": 42.9985,
      "raan_deg": 65.3681,
      "arg_perigee_deg": 259.3515,
      "mean_anomaly_deg": 100.6687,
      "mean_motion_rev_day": 15.27593645
    }
  ]
}